{"type": "FeatureCollection", "features": [ {"type": "Feature", "properties": {"norad_id": 30649, "name": "FENGYUN 1C DEB", "group": "fengyun-1c-debris", "lat": -49.84165698699143, "lon": -97.36544249638153, "alt_km": 800.0760627086756, "timestamp": "2025-12-23T18:59:32.245135+00:00", "meta": {"OBJECT_NAME": "FENGYUN 1C DEB", "OBJECT_ID": "1999-025APG", "EPOCH": "2025-12-22T05:15:24.732864", "MEAN_MOTION": 14.29607893, "ECCENTRICITY": 0.00510647, "INCLINATION": 98.8095, "RA_OF_ASC_NODE": 91.6349, "ARG_OF_PERICENTER": 144.5139, "MEAN_ANOMALY": 277.9996, "EPHEMERIS_TYPE": 0, "CLASSIFICATION_TYPE": "U", "NORAD_CAT_ID": 30649, "ELEMENT_SET_NO": 999, "REV_AT_EPOCH": 97199, "BSTAR": 0.0017348643, "MEAN_MOTION_DOT": 4.462e-05, "MEAN_MOTION_DDOT": 0}, "tle": {"line1": "1 30649U 99025APG 25356.21903626  .00004462  00000+0  17349-2 0  9998", "line2": "2 30649  98.8095  91.6349 0051064 144.5139 277.9996 14.29607893971991"}}, "geometry": {"type": "Point", "coordinates": [-97.36544249638153, -49.84165698699143]}}, {"type": "Feature", "properties": {"norad_id": 30650, "name": "FENGYUN 1C DEB", "group": "fengyun-1c-debris", "lat": -31.517806363180046, "lon": 44.41050842906067, "alt_km": 902.9105697221339, "timestamp": "2025-12-23T18:59:32.245146+00:00", "meta": {"OBJECT_NAME": "FENGYUN 1C DEB", "OBJECT_ID": "1999-025APH", "EPOCH": "2025-12-23T02:17:31.822080", "MEAN_MOTION": 14.13990408, "ECCENTRICITY": 0.00722345, "INCLINATION": 99.2032, "RA_OF_ASC_NODE": 37.9886, "ARG_OF_PERICENTER": 161.1508, "MEAN_ANOMALY": 226.6955, "EPHEMERIS_TYPE": 0, "CLASSIFICATION_TYPE": "U", "NORAD_CAT_ID": 30650, "ELEMENT_SET_NO": 999, "REV_AT_EPOCH": 96445, "BSTAR": 0.0014154524, "MEAN_MOTION_DOT": 2.711e-05, "MEAN_MOTION_DDOT": 0}, "tle": {"line1": "1 30650U 99025APH 25357.09550720  .00002711  00000+0  14155-2 0  9997", "line2": "2 30650  99.2032  37.9886 0072234 161.1508 226.6955 14.13990408964454"}}, "geometry": {"type": "Point", "coordinates": [44.41050842906067, -31.517806363180046]}}, {"type": "Feature", "properties": {"norad_id": 30652, "name": "FENGYUN 1C DEB", "group": "fengyun-1c-debris", "lat": 34.19539462676666, "lon": -143.3462632274995, "alt_km": 864.1633338036909, "timestamp": "2025-12-23T18:59:32.245157+00:00", "meta": {"OBJECT_NAME": "FENGYUN 1C DEB", "OBJECT_ID": "1999-025APJ", "EPOCH": "2025-12-23T01:30:16.306272", "MEAN_MOTION": 14.07808326, "ECCENTRICITY": 0.00075573, "INCLINATION": 98.7838, "RA_OF_ASC_NODE": 29.9145, "ARG_OF_PERICENTER": 232.6282, "MEAN_ANOMALY": 181.8483, "EPHEMERIS_TYPE": 0, "CLASSIFICATION_TYPE": "U", "NORAD_CAT_ID": 30652, "ELEMENT_SET_NO": 999, "REV_AT_EPOCH": 96839, "BSTAR": 3.7912285e-05, "MEAN_MOTION_DOT": 2.1e-07, "MEAN_MOTION_DDOT": 0}, "tle": {"line1": "1 30652U 99025APJ 25357.06268873  .00000021  00000+0  37912-4 0  9991", "line2": "2 30652  98.7838  29.9145 0007557 232.6282 181.8483 14.07808326968397"}}, "geometry": {"type": "Point", "coordinates": [-143.3462632274995, 34.19539462676666]}}, {"type": "Feature", "properties": {"norad_id": 30654, "name": "FENGYUN 1C DEB", "group": "fengyun-1c-debris", "lat": 17.137080756768313, "lon": 104.33985731187371, "alt_km": 838.2905850964726, "timestamp": "2025-12-23T18:59:32.245166+00:00", "meta": {"OBJECT_NAME": "FENGYUN 1C DEB", "OBJECT_ID": "1999-025APL", "EPOCH": "2025-12-22T06:38:50.417088", "MEAN_MOTION": 14.17136613, "ECCENTRICITY": 0.00358095, "INCLINATION": 99.2429, "RA_OF_ASC_NODE": 279.8885, "ARG_OF_PERICENTER": 70.2851, "MEAN_ANOMALY": 290.218, "EPHEMERIS_TYPE": 0, "CLASSIFICATION_TYPE": "U", "NORAD_CAT_ID": 30654, "ELEMENT_SET_NO": 999, "REV_AT_EPOCH": 96815, "BSTAR": 0.0010659496, "MEAN_MOTION_DOT": 2.114e-05, "MEAN_MOTION_DDOT": 0}, "tle": {"line1": "1 30654U 99025APL 25356.27697242  .00002114  00000+0  10659-2 0  9993", "line2": "2 30654  99.2429 279.8885 0035809  70.2851 290.2180 14.17136613968154"}}, "geometry": {"type": "Point", "coordinates": [104.33985731187371, 17.137080756768313]}}, {"type": "Feature", "properties": {"norad_id": 30656, "name": "FENGYUN 1C DEB", "group": "fengyun-1c-debris", "lat": -4.865282318633113, "lon": 173.3487377445401, "alt_km": 732.490913020074, "timestamp": "2025-12-23T18:59:32.245175+00:00", "meta": {"OBJECT_NAME": "FENGYUN 1C DEB", "OBJECT_ID": "1999-025APN", "EPOCH": "2025-12-23T04:03:48.394368", "MEAN_MOTION": 14.45488937, "ECCENTRICITY": 0.00300969, "INCLINATION": 99.0183, "RA_OF_ASC_NODE": 171.9137, "ARG_OF_PERICENTER": 54.9039, "MEAN_ANOMALY": 305.4966, "EPHEMERIS_TYPE": 0, "CLASSIFICATION_TYPE": "U", "NORAD_CAT_ID": 30656, "ELEMENT_SET_NO": 999, "REV_AT_EPOCH": 97236, "BSTAR": 0.0024939389, "MEAN_MOTION_DOT": 8.801e-05, "MEAN_MOTION_DDOT": 0}, "tle": {"line1": "1 30656U 99025APN 25357.16931012  .00008801  00000+0  24939-2 0  9995", "line2": "2 30656  99.0183 171.9137 0030096  54.9039 305.4966 14.45488937972362"}}, "geometry": {"type": "Point", "coordinates": [173.3487377445401, -4.865282318633113]}}, {"type": "Feature", "properties": {"norad_id": 30657, "name": "FENGYUN 1C DEB", "group": "fengyun-1c-debris", "lat": -23.24852608308308, "lon": -87.68529912411773, "alt_km": 771.3544855193595, "timestamp": "2025-12-23T18:59:32.245184+00:00", "meta": {"OBJECT_NAME": "FENGYUN 1C DEB", "OBJECT_ID": "1999-025APP", "EPOCH": "2025-12-22T05:25:29.962272", "MEAN_MOTION": 14.38707271, "ECCENTRICITY": 0.00162493, "INCLINATION": 98.8361, "RA_OF_ASC_NODE": 94.5355, "ARG_OF_PERICENTER": 314.359, "MEAN_ANOMALY": 66.5734, "EPHEMERIS_TYPE": 0, "CLASSIFICATION_TYPE": "U", "NORAD_CAT_ID": 30657, "ELEMENT_SET_NO": 999, "REV_AT_EPOCH": 97369, "BSTAR": 0.0021018714, "MEAN_MOTION_DOT": 6.417e-05, "MEAN_MOTION_DDOT": 0}, "tle": {"line1": "1 30657U 99025APP 25356.22604123  .00006417  00000+0  21019-2 0  9999", "line2": "2 30657  98.8361  94.5355 0016249 314.3590  66.5734 14.38707271973691"}}, "geometry": {"type": "Point", "coordinates": [-87.68529912411773, -23.24852608308308]}}, {"type": "Feature", "properties": {"norad_id": 30658, "name": "FENGYUN 1C DEB", "group": "fengyun-1c-debris", "lat": -19.079292251507916, "lon": -153.77403551932835, "alt_km": 808.5208424437715, "timestamp": "2025-12-23T18:59:32.245192+00:00", "meta": {"OBJECT_NAME": "FENGYUN 1C DEB", "OBJECT_ID": "1999-025APQ", "EPOCH": "2025-12-18T13:23:50.214912", "MEAN_MOTION": 13.87228138, "ECCENTRICITY": 0.01842986, "INCLINATION": 98.4389, "RA_OF_ASC_NODE": 24.4397, "ARG_OF_PERICENTER": 211.7114, "MEAN_ANOMALY": 147.2839, "EPHEMERIS_TYPE": 0, "CLASSIFICATION_TYPE": "U", "NORAD_CAT_ID": 30658, "ELEMENT_SET_NO": 999, "REV_AT_EPOCH": 94765, "BSTAR": 0.001331943, "MEAN_MOTION_DOT": 1.751e-05, "MEAN_MOTION_DDOT": 0}, "tle": {"line1": "1 30658U 99025APQ 25352.55822008  .00001751  00000+0  13319-2 0  9996", "line2": "2 30658  98.4389  24.4397 0184298 211.7114 147.2839 13.87228138947651"}}, "geometry": {"type": "Point", "coordinates": [-153.77403551932835, -19.079292251507916]}}, {"type": "Feature", "properties": {"norad_id": 30660, "name": "FENGYUN 1C DEB", "group": "fengyun-1c-debris", "lat": -37.20743101007966, "lon": 100.77498839260475, "alt_km": 524.4999369979887, "timestamp": "2025-12-23T18:59:32.245201+00:00", "meta": {"OBJECT_NAME": "FENGYUN 1C DEB", "OBJECT_ID": "1999-025APS", "EPOCH": "2025-12-22T06:17:55.599648", "MEAN_MOTION": 14.87642122, "ECCENTRICITY": 0.01364662, "INCLINATION": 98.1391, "RA_OF_ASC_NODE": 92.9686, "ARG_OF_PERICENTER": 303.2487, "MEAN_ANOMALY": 115.486, "EPHEMERIS_TYPE": 0, "CLASSIFICATION_TYPE": "U", "NORAD_CAT_ID": 30660, "ELEMENT_SET_NO": 999, "REV_AT_EPOCH": 926, "BSTAR": 0.00055010607, "MEAN_MOTION_DOT": 5.876e-05, "MEAN_MOTION_DDOT": 0}, "tle": {"line1": "1 30660U 99025APS 25356.26244907  .00005876  00000+0  55011-3 0  9995", "line2": "2 30660  98.1391  92.9686 0136466 303.2487 115.4860 14.87642122  9260"}}, "geometry": {"type": "Point", "coordinates": [100.77498839260475, -37.20743101007966]}}, {"type": "Feature", "properties": {"norad_id": 30661, "name": "FENGYUN 1C DEB", "group": "fengyun-1c-debris", "lat": -69.13138892365372, "lon": -31.73006046053015, "alt_km": 884.6665799050224, "timestamp": "2025-12-23T18:59:32.245210+00:00", "meta": {"OBJECT_NAME": "FENGYUN 1C DEB", "OBJECT_ID": "1999-025APT", "EPOCH": "2025-12-21T18:29:51.790848", "MEAN_MOTION": 14.21147338, "ECCENTRICITY": 0.01444369, "INCLINATION": 99.487, "RA_OF_ASC_NODE": 172.1163, "ARG_OF_PERICENTER": 20.2352, "MEAN_ANOMALY": 340.4468, "EPHEMERIS_TYPE": 0, "CLASSIFICATION_TYPE": "U", "NORAD_CAT_ID": 30661, "ELEMENT_SET_NO": 999, "REV_AT_EPOCH": 98030, "BSTAR": 9.859484e-05, "MEAN_MOTION_DOT": 1.88e-06, "MEAN_MOTION_DDOT": 0}, "tle": {"line1": "1 30661U 99025APT 25355.77073832  .00000188  00000+0  98595-4 0  9994", "line2": "2 30661  99.4870 172.1163 0144436  20.2352 340.4468 14.21147338980305"}}, "geometry": {"type": "Point", "coordinates": [-31.73006046053015, -69.13138892365372]}}, {"type": "Feature", "properties": {"norad_id": 30662, "name": "FENGYUN 1C DEB", "group": "fengyun-1c-debris", "lat": -9.743853198327564, "lon": 55.931126750499544, "alt_km": 829.8175684624584, "timestamp": "2025-12-23T18:59:32.245220+00:00", "meta": {"OBJECT_NAME": "FENGYUN 1C DEB", "OBJECT_ID": "1999-025APU", "EPOCH": "2025-12-22T11:33:16.091136", "MEAN_MOTION": 14.22417109, "ECCENTRICITY": 0.00336775, "INCLINATION": 99.0515, "RA_OF_ASC_NODE": 53.018, "ARG_OF_PERICENTER": 243.1052, "MEAN_ANOMALY": 242.8592, "EPHEMERIS_TYPE": 0, "CLASSIFICATION_TYPE": "U", "NORAD_CAT_ID": 30662, "ELEMENT_SET_NO": 999, "REV_AT_EPOCH": 96777, "BSTAR": 0.0014345944, "MEAN_MOTION_DOT": 3.168e-05, "MEAN_MOTION_DDOT": 0}, "tle": {"line1": "1 30662U 99025APU 25356.48143624  .00003168  00000+0  14346-2 0  9992", "line2": "2 30662  99.0515  53.0180 0033677 243.1052 242.8592 14.22417109967777"}}, "geometry": {"type": "Point", "coordinates": [55.931126750499544, -9.743853198327564]}}]}